NORAD_CAT_ID,OBJECT_NAME,OBJECT_TYPE,EPOCH,MEAN_MOTION,ECCENTRICITY,INCLINATION,RA_OF_ASC_NODE,ARG_OF_PERICENTER,MEAN_ANOMALY,BSTAR,MEAN_MOTION_DOT,MEAN_MOTION_DDOT,TLE_LINE0,TLE_LINE1,TLE_LINE2,SEMIMAJOR_AXIS,PERIOD,APOGEE,PERIGEE,DECAYED
56784.0,STARLINK-6354,PAYLOAD,2024-03-14 19:52:45,14.9832819,0.0002371,70.0023,352.195,258.5522,101.5371,-5.9285e-05,-8e-06,0.0,0 STARLINK-6354,1 56784U 23078T   24074.82830275 -.00000800  00000-0 -59285-4 0  9995,2 56784  70.0023 352.1950 0002371 258.5522 101.5371 14.98328190 44855,6950.198,96.107,573.711,570.416,0.0
56784.0,STARLINK-6354,PAYLOAD,2024-03-14 21:28:53,14.98328132,0.0002549,70.0019,352.0263,259.6618,100.4254,-8.0086e-05,-1.048e-05,0.0,0 STARLINK-6354,1 56784U 23078T   24074.89506324 -.00001048  00000-0 -80086-4 0  9995,2 56784  70.0019 352.0263 0002549 259.6618 100.4254 14.98328132 44608,6950.199,96.107,573.835,570.292,0.0
56784.0,STARLINK-6354,PAYLOAD,2024-03-15 03:53:25,14.98328547,0.000273,70.0015,351.3518,268.2468,91.8378,-7.299e-05,-9.64e-06,0.0,0 STARLINK-6354,1 56784U 23078T   24075.16210337 -.00000964  00000-0 -72990-4 0  9993,2 56784  70.0015 351.3518 0002730 268.2468  91.8378 14.98328547 44644,6950.197,96.107,573.96,570.165,0.0
56784.0,STARLINK-6354,PAYLOAD,2024-03-16 03:55:26,14.98332572,0.0002772,70.0015,348.8271,263.7777,96.3066,3.5118e-05,3.26e-06,0.0,0 STARLINK-6354,1 56784U 23078T   24076.16349709  .00000326  00000-0  35118-4 0  9991,2 56784  70.0015 348.8271 0002772 263.7777  96.3066 14.98332572 45053,6950.185,96.107,573.977,570.123,0.0
56784.0,STARLINK-6354,PAYLOAD,2024-03-16 19:56:47,14.98326664,0.0003018,70.0012,347.1462,269.392,90.6893,1.9496e-05,1.4e-06,0.0,0 STARLINK-6354,1 56784U 23078T   24076.83110129  .00000140  00000-0  19496-4 0  9992,2 56784  70.0012 347.1462 0003018 269.3920  90.6893 14.98326664 45151,6950.203,96.107,574.166,569.971,0.0
56784.0,STARLINK-6354,PAYLOAD,2024-03-16 21:32:55,14.98326584,0.0003027,70.0012,346.9778,269.2926,90.7887,1.7401e-05,1.15e-06,0.0,0 STARLINK-6354,1 56784U 23078T   24076.89786147  .00000115  00000-0  17401-4 0  9993,2 56784  70.0012 346.9778 0003027 269.2926  90.7887 14.98326584 44900,6950.203,96.107,574.172,569.965,0.0
56784.0,STARLINK-6354,PAYLOAD,2024-03-17 03:57:27,14.98329672,0.0002962,70.0012,346.3047,268.7689,91.3131,5.2615e-05,5.35e-06,0.0,0 STARLINK-6354,1 56784U 23078T   24077.16489880  .00000535  00000-0  52615-4 0  9990,2 56784  70.0012 346.3047 0002962 268.7689  91.3131 14.98329672 44944,6950.194,96.107,574.118,570.0,0.0
56784.0,STARLINK-6354,PAYLOAD,2024-03-17 19:58:47,14.98332964,0.000282,70.0015,344.6218,270.7532,89.3304,6.2627e-06,-1.8e-07,0.0,0 STARLINK-6354,1 56784U 23078T   24077.83249784 -.00000018  00000-0  62627-5 0  9993,2 56784  70.0015 344.6218 0002820 270.7532  89.3304 14.98332964 45309,6950.184,96.107,574.009,570.089,0.0
56784.0,STARLINK-6354,PAYLOAD,2024-03-17 21:34:55,14.98333115,0.0002823,70.0015,344.4534,270.8259,89.2576,8.2724e-06,6e-08,0.0,0 STARLINK-6354,1 56784U 23078T   24077.89925754  .00000006  00000-0  82724-5 0  9993,2 56784  70.0015 344.4534 0002823 270.8259  89.2576 14.98333115 45059,6950.183,96.107,574.01,570.086,0.0
56784.0,STARLINK-6354,PAYLOAD,2024-03-18 03:59:27,14.98336522,0.0002767,70.0016,343.7799,270.3589,89.7253,4.2402e-05,4.13e-06,0.0,0 STARLINK-6354,1 56784U 23078T   24078.16629371  .00000413  00000-0  42402-4 0  9990,2 56784  70.0016 343.7799 0002767 270.3589  89.7253 14.98336522 45099,6950.173,96.107,573.961,570.115,0.0
56784.0,STARLINK-6354,PAYLOAD,2024-03-18 21:36:56,14.98328458,0.0002663,70.0018,341.9287,259.7959,100.29,7.2594e-06,-6e-08,0.0,0 STARLINK-6354,1 56784U 23078T   24078.90065772 -.00000006  00000-0  72594-5 0  9996,2 56784  70.0018 341.9287 0002663 259.7959 100.2900 14.98328458 45200,6950.198,96.107,573.913,570.212,0.0
56784.0,STARLINK-6354,PAYLOAD,2024-03-19 02:25:20,14.98328823,0.0002662,70.0018,341.4237,259.4762,100.6097,9.8186e-06,2.4e-07,0.0,0 STARLINK-6354,1 56784U 23078T   24079.10093742  .00000024  00000-0  98186-5 0  9991,2 56784  70.0018 341.4237 0002662 259.4762 100.6097 14.98328823 45496,6950.197,96.107,573.912,570.211,0.0
56784.0,STARLINK-6354,PAYLOAD,2024-03-19 21:38:56,14.98339571,0.0002648,70.0019,339.4043,254.5441,105.5426,4.1692e-05,4.05e-06,0.0,0 STARLINK-6354,1 56784U 23078T   24079.90204639  .00000405  00000-0  41692-4 0  9990,2 56784  70.0019 339.4043 0002648 254.5441 105.5426 14.98339571 45619,6950.163,96.106,573.869,570.188,0.0
56784.0,STARLINK-6354,PAYLOAD,2024-03-20 02:27:20,14.9834155,0.0002586,70.0019,338.8995,252.2428,107.8449,6.6847e-05,7.05e-06,0.0,0 STARLINK-6354,1 56784U 23078T   24080.10232304  .00000705  00000-0  66847-4 0  9996,2 56784  70.0019 338.8995 0002586 252.2428 107.8449 14.98341550 45383,6950.157,96.106,573.819,570.225,0.0
56784.0,STARLINK-6354,PAYLOAD,2024-03-20 20:04:50,14.98319639,0.0002718,70.0039,337.0514,219.4656,140.6306,2.0066e-05,1.46e-06,0.0,0 STARLINK-6354,1 56784U 23078T   24080.83669663  .00000146  00000-0  20066-4 0  9990,2 56784  70.0039 337.0514 0002718 219.4656 140.6306 14.98319639 45759,6950.225,96.108,573.979,570.201,0.0
56784.0,STARLINK-6354,PAYLOAD,2024-03-20 23:17:07,14.98321974,0.0003038,70.0014,336.7108,263.2943,96.787,-0.00016613,-2.074e-05,0.0,0 STARLINK-6354,1 56784U 23078T   24080.97022316 -.00002074  00000-0 -16613-3 0  9999,2 56784  70.0014 336.7108 0003038 263.2943  96.7870 14.98321974 45515,6950.218,96.108,574.194,569.971,0.0
56784.0,STARLINK-6354,PAYLOAD,2024-03-21 10:30:03,14.98327478,0.0003066,70.0007,335.5313,264.8977,95.1832,-8.9445e-05,-1.16e-05,0.0,0 STARLINK-6354,1 56784U 23078T   24081.43753867 -.00001160  00000-0 -89445-4 0  9992,2 56784  70.0007 335.5313 0003066 264.8977  95.1832 14.98327478 45580,6950.201,96.107,574.197,569.935,0.0
56784.0,STARLINK-6354,PAYLOAD,2024-03-21 20:06:51,14.9833293,0.0003049,70.0007,334.5204,261.7803,98.3011,-3.4107e-05,-5e-06,0.0,0 STARLINK-6354,1 56784U 23078T   24081.83809381 -.00000500  00000-0 -34107-4 0  9991,2 56784  70.0007 334.5204 0003049 261.7803  98.3011 14.98332930 45902,6950.184,96.107,574.168,569.93,0.0
56784.0,STARLINK-6354,PAYLOAD,2024-03-21 21:42:59,14.9833299,0.0002758,70.0006,334.3515,250.8192,109.2669,-2.0845e-05,-3.42e-06,0.0,0 STARLINK-6354,1 56784U 23078T   24081.90485314 -.00000342  00000-0 -20845-4 0  9993,2 56784  70.0006 334.3515 0002758 250.8192 109.2669 14.98332990 45659,6950.184,96.107,573.966,570.132,0.0
56784.0,STARLINK-6354,PAYLOAD,2024-03-22 02:31:22,14.98342886,0.0002983,70.0005,333.8469,261.189,98.8931,7.3762e-05,7.88e-06,0.0,0 STARLINK-6354,1 56784U 23078T   24082.10512349  .00000788  00000-0  73762-4 0  9993,2 56784  70.0005 333.8469 0002983 261.1890  98.8931 14.98342886 45942,6950.153,96.106,574.091,569.945,0.0
56784.0,STARLINK-6354,PAYLOAD,2024-03-22 20:08:52,14.98320823,0.0002856,70.0015,331.9975,265.9189,94.1643,0.00011224,1.246e-05,0.0,0 STARLINK-6354,1 56784U 23078T   24082.83949653  .00001246  00000-0  11224-3 0  9999,2 56784  70.0015 331.9975 0002856 265.9189  94.1643 14.98320823 46055,6950.221,96.108,574.071,570.101,0.0
56784.0,STARLINK-6354,PAYLOAD,2024-03-22 21:45:00,14.98320348,0.0002857,70.0012,331.8282,266.7925,93.2907,9.6444e-05,1.058e-05,0.0,0 STARLINK-6354,1 56784U 23078T   24082.90625771  .00001058  00000-0  96444-4 0  9998,2 56784  70.0012 331.8282 0002857 266.7925  93.2907 14.98320348 45807,6950.223,96.108,574.073,570.102,0.0
56784.0,STARLINK-6354,PAYLOAD,2024-03-23 20:10:53,14.98330207,0.0002876,70.0015,329.4724,269.3278,90.7552,3.7858e-06,-4.8e-07,0.0,0 STARLINK-6354,1 56784U 23078T   24083.84089692 -.00000048  00000-0  37858-5 0  9992,2 56784  70.0015 329.4724 0002876 269.3278  90.7552 14.98330207 46203,6950.192,96.107,574.056,570.058,0.0
56784.0,STARLINK-6354,PAYLOAD,2024-03-23 21:47:01,14.98324628,0.0003255,70.0016,329.3049,268.0817,91.997,8.4658e-05,9.17e-06,0.0,0 STARLINK-6354,1 56784U 23078T   24083.90765762  .00000917  00000-0  84658-4 0  9991,2 56784  70.0016 329.3049 0003255 268.0817  91.9970 14.98324628 45958,6950.21,96.107,574.337,569.812,0.0
56784.0,STARLINK-6354,PAYLOAD,2024-03-24 08:59:57,14.98339156,0.0002416,70.002,328.1238,272.5869,87.5014,-3.692e-05,-5.33e-06,0.0,0 STARLINK-6354,1 56784U 23078T   24084.37497065 -.00000533  00000-0 -36920-4 0  9996,2 56784  70.0020 328.1238 0002416 272.5869  87.5014 14.98339156 46284,6950.165,96.106,573.709,570.35,0.0
56784.0,STARLINK-6354,PAYLOAD,2024-03-24 20:12:53,14.98377125,0.0002448,70.0014,326.9472,251.3624,108.727,-0.00072125,-8.698e-05,0.0,0 STARLINK-6354,1 56784U 23078T   24084.84228591 -.00008698  00000-0 -72125-3 0  9990,2 56784  70.0014 326.9472 0002448 251.3624 108.7270 14.98377125 46358,6950.047,96.104,573.614,570.211,0.0
56784.0,STARLINK-6354,PAYLOAD,2024-03-24 21:49:01,14.98338568,0.0002354,70.0008,326.7793,249.6191,110.4715,-7.8814e-05,-1.033e-05,0.0,0 STARLINK-6354,1 56784U 23078T   24084.90905025 -.00001033  00000-0 -78814-4 0  9999,2 56784  70.0008 326.7793 0002354 249.6191 110.4715 14.98338568 46105,6950.166,96.106,573.667,570.395,0.0
56784.0,STARLINK-6354,PAYLOAD,2024-03-25 09:01:59,14.98322543,0.0002459,70.0013,325.6013,269.7686,90.3191,-7.3137e-05,-9.65e-06,0.0,0 STARLINK-6354,1 56784U 23078T   24085.37637974 -.00000965  00000-0 -73137-4 0  9992,2 56784  70.0013 325.6013 0002459 269.7686  90.3191 14.98322543 46438,6950.216,96.107,573.79,570.372,0.0
56784.0,STARLINK-6354,PAYLOAD,2024-03-25 20:14:56,14.98312131,0.0002854,70.0006,324.422,266.8626,93.2207,-0.00023935,-2.946e-05,0.0,0 STARLINK-6354,1 56784U 23078T   24085.84371259 -.00002946  00000-0 -23935-3 0  9996,2 56784  70.0006 324.4220 0002854 266.8626  93.2207 14.98312131 46508,6950.248,96.108,574.097,570.13,0.0
56784.0,STARLINK-6354,PAYLOAD,2024-03-25 21:51:04,14.98313416,0.000275,70.0008,324.2541,264.6605,95.424,-0.00021559,-2.663e-05,0.0,0 STARLINK-6354,1 56784U 23078T   24085.91047159 -.00002663  00000-0 -21559-3 0  9999,2 56784  70.0008 324.2541 0002750 264.6605  95.4240 14.98313416 46252,6950.244,96.108,574.02,570.198,0.0
